# Made by eph2tle, compiled Sep 16 2024 20:36:24
# Run at Thu Sep 19 12:05:16 2024
#
#    The following TLEs (Two-Line Elements) were generated by fitting
# a numerically-integrated ephemeris,  based on the orbit given below,
# to the SDP4/SGP4 models.  Each TLE is good for the interval between
# its epoch and the epoch of the subsequent TLE (usually one day).
# The maximum deviation between the numerically integrated ephemerides
# and the TLE-based ephemeris, in kilometers,  is given for each TLE
# as the "worst residual".
#
#    This fitting is done using the 'eph2tle' code packaged with Find_Orb.
# The code has details on how the TLEs were computed :
#
#    https://github.com/Bill-Gray/find_orb/eph2tle.cpp
#
#    Be warned:  the error given is that between the numerically
# integrated ephems and the TLE model.  There will usually be at
# least some additional difference between the ephems and the actual
# motion of the satellite,  especially if the ephemerides are based
# on a short arc.  If the following orbital elements say something
# like "[based on] 10 observations 2015 Jan. 1-13",  and the TLEs
# are for 2015 May,  the extrapolation may be tenuous at best.  If
# your application requires a specific level of accuracy,  you may
# want to contact me;  I can give you some idea as to the fit of the
# underlying data (and possibly TLEs based on newer data).
#
#   You can usually find the underlying observational data,  and the
# fitted orbit,  residuals,  ephemerides,  and sometimes some comments
# about the object,  among the pages listed at
#
#    https://www.projectpluto.com/pluto/mpecs/pseudo.htm
#
#    WARNING:  for this object,  "normal" TLEs cannot be fitted.  (This
# usually means an object with an hyperbolic or nearly-parabolic orbit.)
# For this and similar cases,   an alternative model is used,  in which
# most of the traditional TLE data is replaced by six signed 8-digit hex
# numbers.  These six numbers are a state vector,  numerically integrated
# using a simplified force model.  This is necessary for objects at L2 or
# L1,  and sometimes for objects in high orbits where the SDP4/SGP4 model
# fails.  Some documentation is in 'get_el.cpp' in the source code at
# https://www.github.com/Bill-Gray/sat_code ; look for 'hex' in that file,
# with the actual integration done in 'sdp4.cpp'.  But be aware:  it's my
# own extension,  doesn't work with other code,  and is therefore used
# only when necessary.
#
#    Also,  if you use a TLE outside the "correct" time range (between
# its MJD and that of the next TLE),  all bets are off.  I've carefully
# computed and minimized the worst error over the "correct" time frame,
# but the ephemeris may (or may not) diverge wildly outside of it.
#
# Ephem range: 60523.000000 60806.000000 1.000000
# Created Thu Sep 19 12:04:52 2024
# Ephemeris start:  1 Aug 2024  0:00:00
# Ephemeris end:   11 May 2025  0:00:00
# Times are all TDT
# Positions/velocities are in equatorial J2000
# Orbital elements:  SSA01
#    Perigee 2024 Sep 12.73968 +/- 0.000175 TT = 17:45:08 (JD 2460566.23968)
# Epoch 2024 Sep 19.0 TT = JDT 2460572.5                           Find_Orb
# M  85.39986535 +/- 0.009            (J2000 equator)
# n  13.64145346 +/- 0.00106          Peri.  259.81334 +/- 0.006
# a374423.480 +/- 19.5                Node     2.93061 +/- 0.000055
# e   0.3166836 +/- 1.1e-5            Incl.   26.94396 +/- 0.000031
# P  26.3897d                H 30.21  G  0.15   U  8.1
# q 255849.677 +/- 9.56    Q 492997.282 +/- 29.5
# 33 of 36 observations 2024 Sept. 13-19; mean residual 0".815
#
# Elements after  1 Oct 2024 :
#
#    Perigee 2024 Dec 22.654768 +/- 7.94e-5 TT = 15:42:51.9 (JD 2460667.154768)
# Epoch 2024 Dec 19.0 TT = JDT 2460663.5                           Find_Orb
# M 320.700940167 +/- 0.0010          (J2000 equator)
# n  10.752819013 +/- 5.04e-5         Peri.  189.381648 +/- 0.0015
# a438788.5457 +/- 1.37               Node   355.163920 +/- 0.00031
# e   0.29085106 +/- 8.3e-7           Incl.   28.789111 +/- 0.00012
# P  33.4790d                H 30.39  G  0.15   U  6.1
# q 311166.4293 +/- 0.728    Q 566410.6622 +/- 2.06
# From 27 observations 2024 Oct. 15-Dec. 19; mean residual 0".523
#
# Elements after 18 Dec 2024 :
#
#    Perigee 2025 Jan 5.549819 +/- 4.62e-5 TT = 13:11:44.3 (JD 2460681.049819)
# dx:   -0.259 +/- 0.00753   dy:   -0.658 +/- 0.0619
# dz:  -0.0788 +/- 0.00523 m/s   T0: 2024 Dec 27.515 +/- 0.217
# Epoch 2025 Jan  1.0 TT = JDT 2460676.5                           Find_Orb
# M 309.250935173 +/- 0.0007          (J2000 equator)
# n  11.154084859 +/- 4.99e-5         Peri.   14.003670 +/- 0.0013
# a428200.8680 +/- 1.28               Node     1.602085 +/- 0.00006
# e   0.39041791 +/- 2.12e-6          Incl.   26.889371 +/- 0.000018
# P  32.2746d                H 29.81  G  0.15   U  6.1
# q 261023.5772 +/- 1.4    Q 595378.1588 +/- 1.68
# 26 of 35 observations 2024 Dec. 18-2025 Jan. 15; mean residual 0".349
#
# Elements after 24 Jan 2025 :
#
# Orbital elements:  048ZZZ
#    Perigee 2025 Jan 30.815241 +/- 0.00037167 TT = 19:33:56.8 (JD 2460706.315241)
# dx: 0.38056 +/- 0.0017816   dy: 0.14084 +/- 0.0080385
# dz: 0.2812 +/- 0.0015316 m/s   T0: 2025 Jan 23.132 +/- 0.085142
# Epoch 2025 Feb  4.0 TT = JDT 2460710.5                           Find_Orb
# M  48.525249030 +/- 0.005564        (J2000 equator)
# n  11.595710314 +/- 0.00030103      Peri.  318.326194 +/- 0.005629
# a417258.5726 +/- 7.2213             Node   357.863867 +/- 0.0003716
# e   0.35614563 +/- 8.979e-6         Incl.   30.008283 +/- 0.0000880
# P  31.0454d                H 29.03  G  0.15   U  7.3
# q 268653.7550 +/- 1.0232    Q 565863.3901 +/- 13.522
# 24 of 51 observations 2025 Jan. 7-Feb. 16; mean residual 0".447
#
# Elements after  6 Feb 2025 :
#
# Orbital elements:  DRO-B = 2024-048D = NORAD 60058
#    Perigee 2025 Feb 28.072985 +/- 0.00081751 TT =  1:45:05.8 (JD 2460734.572985)
# Epoch 2025 Mar  4.0 TT; AMR 0.0091092 +/- 0.00027005 m^2/kg      Find_Orb
# M  43.378657658 +/- 0.01391         (J2000 equator)
# n  11.046215960 +/- 0.0012451       Peri.  325.346763 +/- 0.01489
# a430984.0054 +/- 32.386             Node     1.016730 +/- 0.0001438
# e   0.39313883 +/- 2.5339e-5        Incl.   27.463088 +/- 0.0000859
# P  32.5897d                H 27.13  G  0.15   U  8.3
# q 261547.4548 +/- 8.7384    Q 600420.5560 +/- 56.038
# 20 of 55 observations 2025 Feb. 4-Mar. 4; mean residual 0".271
#
# 1 NoradU COSPAR   Epoch.epoch     dn/dt/2  d2n/dt2/6 BSTAR    T El# C
# 2 NoradU Inclina RAAscNode Eccent  ArgPeri MeanAno  MeanMotion Rev# C

# Worst residual: 42.43 km
# MJD 60523.000000 (2024 Aug  1  0:00)
SSA01
1 60058U 24048D   24213.99919926 +001CMN3T +004WRJFO +002LRJC6H 24545
2 60058                          -0007725D -00007ZO4 +0000BCX9     04

# Worst residual: 70.64 km
# MJD 60524.000000 (2024 Aug  2  0:00)
SSA01
1 60058U 24048D   24214.99919926 -000FVM5Z +004OY8VE +002LCJE2H 24542
2 60058                          -0007N4V9 -0001LNDB -0000FH1X     06

# Worst residual: 37.95 km
# MJD 60525.000000 (2024 Aug  3  0:00)
SSA01
1 60058U 24048D   24215.99919926 -0029CIO8 +0045BYQF +002E9DVVH 24541
2 60058                          -0007DCQ1 -0002WD4C -00017816     01

# Worst residual: 24.05 km
# MJD 60526.000000 (2024 Aug  4  0:00)
SSA01
1 60058U 24048D   24216.99919926 -003WYCN8 +003BTWZ5 +0020ZIZNH 24544
2 60058                          -0006BP1Z -0003V551 -0001U8RE     04

# Worst residual: 13.31 km
# MJD 60527.000000 (2024 Aug  5  0:00)
SSA01
1 60058U 24048D   24217.99919926 -0059LZ1U +002BPTAD +001J3RCMH 24545
2 60058                          -0004WXPK -0004FDZ8 -00029DT3     04

# Worst residual: 10.50 km
# MJD 60528.000000 (2024 Aug  6  0:00)
SSA01
1 60058U 24048D   24218.99919926 -0069VHAT +0018DTOE +000YJO06H 24545
2 60058                          -0003HRNW -0004MGFX -0002GS60     09

# Worst residual: 7.91 km
# MJD 60529.000000 (2024 Aug  7  0:00)
SSA01
1 60058U 24048D   24219.99919926 -006YBNGW +0004LRHJ +000CYM4NH 24540
2 60058                          -00026RUT -0004JNRR -0002I9D7     04

# Worst residual: 12.89 km
# MJD 60530.000000 (2024 Aug  8  0:00)
SSA01
1 60058U 24048D   24220.99919926 -007C1ND2 -000XLVNH -0008FT6PH 24544
2 60058                          -0001080F -00049R61 -0002FGYZ     05

# Worst residual: 24.52 km
# MJD 60531.000000 (2024 Aug  9  0:00)
SSA01
1 60058U 24048D   24221.99919926 -007FXPUC -001WRDGD -000SRMRJH 24549
2 60058                          +00003JG8 -0003UD33 -00029GCU     04

# Worst residual: 30.32 km
# MJD 60532.000000 (2024 Aug 10  0:00)
SSA01
1 60058U 24048D   24222.99919926 -007ACELW -002ROJXP -001BC4AZH 24546
2 60058                          +00017BV7 -0003ARL8 -00020XYL     01

# Worst residual: 35.84 km
# MJD 60533.000000 (2024 Aug 11  0:00)
SSA01
1 60058U 24048D   24223.99919926 -006UXBPU -003HMPD7 -001RO0TUH 24540
2 60058                          +0002DMBT -0002PHEY -0001R102     01

# Worst residual: 38.93 km
# MJD 60534.000000 (2024 Aug 12  0:00)
SSA01
1 60058U 24048D   24224.99919926 -006553PJ -0042KFDZ -0025KBJ7H 24543
2 60058                          +0003L500 -000256FR -0001GPNB     05

# Worst residual: 39.33 km
# MJD 60535.000000 (2024 Aug 13  0:00)
SSA01
1 60058U 24048D   24225.99919926 -00553TDL -004IN81U -002GVJ96H 24548
2 60058                          +0004QOJM -0001KEC5 -000156VR     05

# Worst residual: 41.07 km
# MJD 60536.000000 (2024 Aug 14  0:00)
SSA01
1 60058U 24048D   24226.99919926 -003VG9SI -004TA0CE -002P2T2CH 24548
2 60058                          +0005T95M -0000V4T6 -0000QFYG     02

# Worst residual: 45.26 km
# MJD 60537.000000 (2024 Aug 15  0:00)
SSA01
1 60058U 24048D   24227.99919926 -002CYINY -004WXQZI -002T54QDH 24544
2 60058                          +0006S0WJ +000028N3 -00006DKM     07

# Worst residual: 54.21 km
# MJD 60538.000000 (2024 Aug 16  0:00)
SSA01
1 60058U 24048D   24228.99919926 -000MXU7M -004RDLY7 -002RKYA3H 24541
2 60058                          +0007IT4B +00019QW9 +0000KK75     03

